[{"OBJECT_NAME":"FFLY01","OBJECT_ID":"2025-188F","EPOCH":"2026-03-09T23:07:21.655776","MEAN_MOTION":14.92848579,"ECCENTRICITY":0.00112982,"INCLINATION":97.7442,"RA_OF_ASC_NODE":145.8408,"ARG_OF_PERICENTER":138.2853,"MEAN_ANOMALY":221.923,"EPHEMERIS_TYPE":0,"CLASSIFICATION_TYPE":"U","NORAD_CAT_ID":65320,"ELEMENT_SET_NO":999,"REV_AT_EPOCH":2910,"BSTAR":0.000290729,"MEAN_MOTION_DOT":2.958e-5,"MEAN_MOTION_DDOT":0},{"OBJECT_NAME":"CZ-4C DEB","OBJECT_ID":"2018-031K","EPOCH":"2026-03-02T00:17:56.198400","MEAN_MOTION":14.95487278,"ECCENTRICITY":0.0003993,"INCLINATION":97.8004,"RA_OF_ASC_NODE":146.3445,"ARG_OF_PERICENTER":288.1308,"MEAN_ANOMALY":71.9478,"EPHEMERIS_TYPE":0,"CLASSIFICATION_TYPE":"U","NORAD_CAT_ID":44616,"ELEMENT_SET_NO":999,"REV_AT_EPOCH":41019,"BSTAR":0.00049507,"MEAN_MOTION_DOT":5.425e-5,"MEAN_MOTION_DDOT":0}]
